{"epoch":1784762836,"count":18316,"objects":[{"id":"25933","name":"NAVSTAR 46 (USA 145)","type":"PAYLOAD","l1":"1 25933U 99055A   26202.20801993 -.00000087  00000-0  00000-0 0  9990","l2":"2 25933  51.4309 293.9789 0106269 177.3979 189.5059  2.00560592196260"},{"id":"26360","name":"NAVSTAR 47 (USA 150)","type":"PAYLOAD","l1":"1 26360U 00025A   26201.86606257 -.00000095  00000-0  00000-0 0  9990","l2":"2 26360  55.1629  17.9486 0021212 258.6450 119.2841  2.00563306191956"},{"id":"26407","name":"NAVSTAR 48 (USA 151)","type":"PAYLOAD","l1":"1 26407U 00040A   26202.69346730  .00000077  00000-0  00000-0 0  9997","l2":"2 26407  54.8479 213.7915 0120341 302.8279  55.6379  2.00558007190639"},{"id":"26605","name":"NAVSTAR 49 (USA 154)","type":"PAYLOAD","l1":"1 26605U 00071A   26202.04627832 -.00000056  00000-0  00000-0 0  9993","l2":"2 26605  55.6443  93.6165 0174115 266.9152 269.7231  2.00563967188193"},{"id":"26690","name":"NAVSTAR 50 (USA 156)","type":"PAYLOAD","l1":"1 26690U 01004A   26202.59296190 -.00000090  00000-0  00000-0 0  9991","l2":"2 26690  55.2442  31.4990 0002910  33.8206 323.7260  1.91588246184197"},{"id":"27663","name":"NAVSTAR 51 (USA 166)","type":"PAYLOAD","l1":"1 27663U 03005A   26203.02122582  .00000081  00000-0  00000-0 0  9996","l2":"2 27663  54.8783 213.5847 0148436  53.1965 318.1453  2.00558761172016"},{"id":"27704","name":"NAVSTAR 52 (USA 168)","type":"PAYLOAD","l1":"1 27704U 03010A   26202.77773267 -.00000117  00000-0  00000-0 0  9992","l2":"2 27704  54.7901 323.8960 0004883 248.3043 156.4705  1.91454944170597"},{"id":"28129","name":"NAVSTAR 53 (USA 175)","type":"PAYLOAD","l1":"1 28129U 03058A   26202.30140034 -.00000096  00000-0  00000-0 0  9991","l2":"2 28129  55.0475  22.0056 0001030 339.0265  20.9959  1.92678570165121"},{"id":"28190","name":"NAVSTAR 54 (USA 177)","type":"PAYLOAD","l1":"1 28190U 04009A   26203.10079940 -.00000041  00000-0  00000-0 0  9992","l2":"2 28190  54.8010 274.2748 0117387 174.6364  46.5669  2.00553594163641"},{"id":"28361","name":"NAVSTAR 55 (USA 178)","type":"PAYLOAD","l1":"1 28361U 04023A   26202.30183601 -.00000065  00000-0  00000-0 0  9995","l2":"2 28361  54.8873  85.3332 0159479 302.9103 242.2068  2.00558579161726"},{"id":"28474","name":"NAVSTAR 56 (USA 180)","type":"PAYLOAD","l1":"1 28474U 04045A   26202.78887502 -.00000111  00000-0  00000-0 0  9999","l2":"2 28474  55.1137 323.5025 0170312 317.2190 103.9244  2.00557512159124"},{"id":"28874","name":"NAVSTAR 57 (USA 183)","type":"PAYLOAD","l1":"1 28874U 05038A   26202.81402546 -.00000037  00000-0  00000-0 0  9998","l2":"2 28874  54.8504 271.7781 0128325 296.5020 107.5834  2.00563382152538"},{"id":"29486","name":"NAVSTAR 58 (USA 190)","type":"PAYLOAD","l1":"1 29486U 06042A   26202.90948840  .00000023  00000-0  00000-0 0  9990","l2":"2 29486  54.7131 149.9604 0107374  55.3547 316.7240  2.00567924145093"}]}