[
    {
        "OBJECT_NAME": "NAVSTAR 46 (USA 145)",
        "OBJECT_ID": "1999-055A",
        "EPOCH": "2026-07-21T04:59:32.921952",
        "MEAN_MOTION": 2.00560592,
        "ECCENTRICITY": 0.01062692,
        "INCLINATION": 51.4309,
        "RA_OF_ASC_NODE": 293.9789,
        "ARG_OF_PERICENTER": 177.3979,
        "MEAN_ANOMALY": 189.5059,
        "EPHEMERIS_TYPE": 0,
        "CLASSIFICATION_TYPE": "U",
        "NORAD_CAT_ID": 25933,
        "ELEMENT_SET_NO": 999,
        "REV_AT_EPOCH": 19626,
        "BSTAR": 0,
        "MEAN_MOTION_DOT": -8.7e-07,
        "MEAN_MOTION_DDOT": 0
    },
    {
        "OBJECT_NAME": "NAVSTAR 47 (USA 150)",
        "OBJECT_ID": "2000-025A",
        "EPOCH": "2026-07-20T20:47:07.806048",
        "MEAN_MOTION": 2.00563306,
        "ECCENTRICITY": 0.00212116,
        "INCLINATION": 55.1629,
        "RA_OF_ASC_NODE": 17.9486,
        "ARG_OF_PERICENTER": 258.645,
        "MEAN_ANOMALY": 119.2841,
        "EPHEMERIS_TYPE": 0,
        "CLASSIFICATION_TYPE": "U",
        "NORAD_CAT_ID": 26360,
        "ELEMENT_SET_NO": 999,
        "REV_AT_EPOCH": 19195,
        "BSTAR": 0,
        "MEAN_MOTION_DOT": -9.5e-07,
        "MEAN_MOTION_DDOT": 0
    },
    {
        "OBJECT_NAME": "NAVSTAR 48 (USA 151)",
        "OBJECT_ID": "2000-040A",
        "EPOCH": "2026-07-21T16:38:35.574720",
        "MEAN_MOTION": 2.00558007,
        "ECCENTRICITY": 0.01203411,
        "INCLINATION": 54.8479,
        "RA_OF_ASC_NODE": 213.7915,
        "ARG_OF_PERICENTER": 302.8279,
        "MEAN_ANOMALY": 55.6379,
        "EPHEMERIS_TYPE": 0,
        "CLASSIFICATION_TYPE": "U",
        "NORAD_CAT_ID": 26407,
        "ELEMENT_SET_NO": 999,
        "REV_AT_EPOCH": 19063,
        "BSTAR": 0,
        "MEAN_MOTION_DOT": 7.7e-07,
        "MEAN_MOTION_DDOT": 0
    },
    {
        "OBJECT_NAME": "NAVSTAR 49 (USA 154)",
        "OBJECT_ID": "2000-071A",
        "EPOCH": "2026-07-21T01:06:38.446848",
        "MEAN_MOTION": 2.00563967,
        "ECCENTRICITY": 0.01741154,
        "INCLINATION": 55.6443,
        "RA_OF_ASC_NODE": 93.6165,
        "ARG_OF_PERICENTER": 266.9152,
        "MEAN_ANOMALY": 269.7231,
        "EPHEMERIS_TYPE": 0,
        "CLASSIFICATION_TYPE": "U",
        "NORAD_CAT_ID": 26605,
        "ELEMENT_SET_NO": 999,
        "REV_AT_EPOCH": 18819,
        "BSTAR": 0,
        "MEAN_MOTION_DOT": -5.6e-07,
        "MEAN_MOTION_DDOT": 0
    },
    {
        "OBJECT_NAME": "NAVSTAR 50 (USA 156)",
        "OBJECT_ID": "2001-004A",
        "EPOCH": "2026-07-21T14:13:51.908160",
        "MEAN_MOTION": 1.91588246,
        "ECCENTRICITY": 0.00029096,
        "INCLINATION": 55.2442,
        "RA_OF_ASC_NODE": 31.499,
        "ARG_OF_PERICENTER": 33.8206,
        "MEAN_ANOMALY": 323.726,
        "EPHEMERIS_TYPE": 0,
        "CLASSIFICATION_TYPE": "U",
        "NORAD_CAT_ID": 26690,
        "ELEMENT_SET_NO": 999,
        "REV_AT_EPOCH": 18419,
        "BSTAR": 0,
        "MEAN_MOTION_DOT": -9e-07,
        "MEAN_MOTION_DDOT": 0
    },
    {
        "OBJECT_NAME": "NAVSTAR 51 (USA 166)",
        "OBJECT_ID": "2003-005A",
        "EPOCH": "2026-07-22T00:30:33.910848",
        "MEAN_MOTION": 2.00558761,
        "ECCENTRICITY": 0.01484357,
        "INCLINATION": 54.8783,
        "RA_OF_ASC_NODE": 213.5847,
        "ARG_OF_PERICENTER": 53.1965,
        "MEAN_ANOMALY": 318.1453,
        "EPHEMERIS_TYPE": 0,
        "CLASSIFICATION_TYPE": "U",
        "NORAD_CAT_ID": 27663,
        "ELEMENT_SET_NO": 999,
        "REV_AT_EPOCH": 17201,
        "BSTAR": 0,
        "MEAN_MOTION_DOT": 8.1e-07,
        "MEAN_MOTION_DDOT": 0
    },
    {
        "OBJECT_NAME": "NAVSTAR 52 (USA 168)",
        "OBJECT_ID": "2003-010A",
        "EPOCH": "2026-07-21T18:39:56.102688",
        "MEAN_MOTION": 1.91454944,
        "ECCENTRICITY": 0.00048825,
        "INCLINATION": 54.7901,
        "RA_OF_ASC_NODE": 323.896,
        "ARG_OF_PERICENTER": 248.3043,
        "MEAN_ANOMALY": 156.4705,
        "EPHEMERIS_TYPE": 0,
        "CLASSIFICATION_TYPE": "U",
        "NORAD_CAT_ID": 27704,
        "ELEMENT_SET_NO": 999,
        "REV_AT_EPOCH": 17059,
        "BSTAR": 0,
        "MEAN_MOTION_DOT": -1.17e-06,
        "MEAN_MOTION_DDOT": 0
    },
    {
        "OBJECT_NAME": "NAVSTAR 53 (USA 175)",
        "OBJECT_ID": "2003-058A",
        "EPOCH": "2026-07-21T07:14:00.989376",
        "MEAN_MOTION": 1.9267857,
        "ECCENTRICITY": 0.00010297,
        "INCLINATION": 55.0475,
        "RA_OF_ASC_NODE": 22.0056,
        "ARG_OF_PERICENTER": 339.0265,
        "MEAN_ANOMALY": 20.9959,
        "EPHEMERIS_TYPE": 0,
        "CLASSIFICATION_TYPE": "U",
        "NORAD_CAT_ID": 28129,
        "ELEMENT_SET_NO": 999,
        "REV_AT_EPOCH": 16512,
        "BSTAR": 0,
        "MEAN_MOTION_DOT": -9.6e-07,
        "MEAN_MOTION_DDOT": 0
    },
    {
        "OBJECT_NAME": "NAVSTAR 54 (USA 177)",
        "OBJECT_ID": "2004-009A",
        "EPOCH": "2026-07-22T02:25:09.068160",
        "MEAN_MOTION": 2.00553594,
        "ECCENTRICITY": 0.01173866,
        "INCLINATION": 54.801,
        "RA_OF_ASC_NODE": 274.2748,
        "ARG_OF_PERICENTER": 174.6364,
        "MEAN_ANOMALY": 46.5669,
        "EPHEMERIS_TYPE": 0,
        "CLASSIFICATION_TYPE": "U",
        "NORAD_CAT_ID": 28190,
        "ELEMENT_SET_NO": 999,
        "REV_AT_EPOCH": 16364,
        "BSTAR": 0,
        "MEAN_MOTION_DOT": -4.1e-07,
        "MEAN_MOTION_DDOT": 0
    },
    {
        "OBJECT_NAME": "NAVSTAR 55 (USA 178)",
        "OBJECT_ID": "2004-023A",
        "EPOCH": "2026-07-21T07:14:38.631264",
        "MEAN_MOTION": 2.00558579,
        "ECCENTRICITY": 0.01594793,
        "INCLINATION": 54.8873,
        "RA_OF_ASC_NODE": 85.3332,
        "ARG_OF_PERICENTER": 302.9103,
        "MEAN_ANOMALY": 242.2068,
        "EPHEMERIS_TYPE": 0,
        "CLASSIFICATION_TYPE": "U",
        "NORAD_CAT_ID": 28361,
        "ELEMENT_SET_NO": 999,
        "REV_AT_EPOCH": 16172,
        "BSTAR": 0,
        "MEAN_MOTION_DOT": -6.5e-07,
        "MEAN_MOTION_DDOT": 0
    },
    {
        "OBJECT_NAME": "NAVSTAR 56 (USA 180)",
        "OBJECT_ID": "2004-045A",
        "EPOCH": "2026-07-21T18:55:58.801728",
        "MEAN_MOTION": 2.00557512,
        "ECCENTRICITY": 0.01703118,
        "INCLINATION": 55.1137,
        "RA_OF_ASC_NODE": 323.5025,
        "ARG_OF_PERICENTER": 317.219,
        "MEAN_ANOMALY": 103.9244,
        "EPHEMERIS_TYPE": 0,
        "CLASSIFICATION_TYPE": "U",
        "NORAD_CAT_ID": 28474,
        "ELEMENT_SET_NO": 999,
        "REV_AT_EPOCH": 15912,
        "BSTAR": 0,
        "MEAN_MOTION_DOT": -1.11e-06,
        "MEAN_MOTION_DDOT": 0
    },
    {
        "OBJECT_NAME": "NAVSTAR 57 (USA 183)",
        "OBJECT_ID": "2005-038A",
        "EPOCH": "2026-07-21T19:32:11.799744",
        "MEAN_MOTION": 2.00563382,
        "ECCENTRICITY": 0.01283246,
        "INCLINATION": 54.8504,
        "RA_OF_ASC_NODE": 271.7781,
        "ARG_OF_PERICENTER": 296.502,
        "MEAN_ANOMALY": 107.5834,
        "EPHEMERIS_TYPE": 0,
        "CLASSIFICATION_TYPE": "U",
        "NORAD_CAT_ID": 28874,
        "ELEMENT_SET_NO": 999,
        "REV_AT_EPOCH": 15253,
        "BSTAR": 0,
        "MEAN_MOTION_DOT": -3.7e-07,
        "MEAN_MOTION_DDOT": 0
    },
    {
        "OBJECT_NAME": "NAVSTAR 58 (USA 190)",
        "OBJECT_ID": "2006-042A",
        "EPOCH": "2026-07-21T21:49:39.797760",
        "MEAN_MOTION": 2.00567924,
        "ECCENTRICITY": 0.01073739,
        "INCLINATION": 54.7131,
        "RA_OF_ASC_NODE": 149.9604,
        "ARG_OF_PERICENTER": 55.3547,
        "MEAN_ANOMALY": 316.724,
        "EPHEMERIS_TYPE": 0,
        "CLASSIFICATION_TYPE": "U",
        "NORAD_CAT_ID": 29486,
        "ELEMENT_SET_NO": 999,
        "REV_AT_EPOCH": 14509,
        "BSTAR": 0,
        "MEAN_MOTION_DOT": 2.3e-07,
        "MEAN_MOTION_DDOT": 0
    }
]
